[{"OBJECT_NAME":"STARLINK-35136","OBJECT_ID":"2025-200T","EPOCH":"2026-03-09T17:22:37.635744","MEAN_MOTION":15.0562863,"ECCENTRICITY":0.00016048,"INCLINATION":97.6024,"RA_OF_ASC_NODE":139.7945,"ARG_OF_PERICENTER":88.3851,"MEAN_ANOMALY":271.7559,"EPHEMERIS_TYPE":0,"CLASSIFICATION_TYPE":"U","NORAD_CAT_ID":65537,"ELEMENT_SET_NO":999,"REV_AT_EPOCH":2904,"BSTAR":0.00068992897,"MEAN_MOTION_DOT":9.902e-5,"MEAN_MOTION_DDOT":0},{"OBJECT_NAME":"COSMOS 2251 DEB","OBJECT_ID":"1993-036HX","EPOCH":"2026-03-09T21:31:03.673056","MEAN_MOTION":15.04193551,"ECCENTRICITY":0.00046843,"INCLINATION":74.0171,"RA_OF_ASC_NODE":332.1487,"ARG_OF_PERICENTER":332.3762,"MEAN_ANOMALY":27.7177,"EPHEMERIS_TYPE":0,"CLASSIFICATION_TYPE":"U","NORAD_CAT_ID":34036,"ELEMENT_SET_NO":999,"REV_AT_EPOCH":89876,"BSTAR":0.0040391987,"MEAN_MOTION_DOT":0.00056541,"MEAN_MOTION_DDOT":0}]
